H1 CPF  1  DLR 2021 02 22 10  5532 technosat            
H2  1704205 6203    42829 2021 02 22 00 00 00 2021 03 01 00 00 00    60 1 1  0 0 0
H9
10 0 59270  79200.000000  0       1020032.193      -1170737.037      -6807563.532
10 0 59270  79260.000000  0        578659.139      -1075854.704      -6875367.149
10 0 59270  79320.000000  0        135739.243       -972615.308      -6914279.836
10 0 59270  79380.000000  0       -306808.318       -861445.768      -6924148.029
10 0 59270  79440.000000  0       -747071.028       -742822.318      -6904938.386
10 0 59270  79500.000000  0      -1183151.136       -617268.482      -6856737.800
10 0 59270  79560.000000  0      -1613173.615       -485352.769      -6779752.906
10 0 59270  79620.000000  0      -2035293.985       -347686.160      -6674309.168
10 0 59270  79680.000000  0      -2447705.978       -204919.388      -6540849.534
10 0 59270  79740.000000  0      -2848648.990        -57739.980      -6379932.693
10 0 59270  79800.000000  0      -3236415.392         93130.924      -6192230.997
10 0 59270  79860.000000  0      -3609357.719        246941.963      -5978527.952
10 0 59270  79920.000000  0      -3965895.663        402915.129      -5739715.178
10 0 59270  79980.000000  0      -4304522.689        560249.514      -5476788.926
10 0 59270  80040.000000  0      -4623812.371        718125.189      -5190846.291
10 0 59270  80100.000000  0      -4922424.535        875707.271      -4883081.057
10 0 59270  80160.000000  0      -5199111.077       1032150.176      -4554779.023
10 0 59270  80220.000000  0      -5452721.356       1186601.976      -4207312.903
10 0 59270  80280.000000  0      -5682207.170       1338208.817      -3842136.860
10 0 59270  80340.000000  0      -5886627.332       1486119.406      -3460780.699
10 0 59270  80400.000000  0      -6065151.814       1629489.544      -3064843.658
10 0 59270  80460.000000  0      -6217065.395       1767486.683      -2655987.886
10 0 59270  80520.000000  0      -6341770.830       1899294.486      -2235931.623
10 0 59270  80580.000000  0      -6438791.517       2024117.385      -1806442.068
10 0 59270  80640.000000  0      -6507773.609       2141185.083      -1369327.965
10 0 59270  80700.000000  0      -6548487.545       2249756.949       -926431.952
10 0 59270  80760.000000  0      -6560829.024       2349126.298       -479622.717
10 0 59270  80820.000000  0      -6544819.348       2438624.546        -30786.996
10 0 59270  80880.000000  0      -6500605.167       2517625.198        418178.519
10 0 59270  80940.000000  0      -6428457.626       2585547.666        865375.310
10 0 59270  81000.000000  0      -6328770.980       2641860.903       1308911.218
10 0 59270  81060.000000  0      -6202060.566       2686086.782       1746908.666
10 0 59270  81120.000000  0      -6048960.156       2717803.204       2177512.771
10 0 59270  81180.000000  0      -5870218.813       2736646.936       2598899.314
10 0 59270  81240.000000  0      -5666697.248       2742316.162       3009282.649
10 0 59270  81300.000000  0      -5439363.586       2734572.720       3406923.443
10 0 59270  81360.000000  0      -5189288.619       2713243.987       3790136.160
10 0 59270  81420.000000  0      -4917640.604       2678224.462       4157296.249
10 0 59270  81480.000000  0      -4625679.663       2629477.007       4506847.039
10 0 59270  81540.000000  0      -4314751.825       2567033.753       4837306.334
10 0 59270  81600.000000  0      -3986282.680       2490996.666       5147272.698
10 0 59270  81660.000000  0      -3641770.737       2401537.754       5435431.343
10 0 59270  81720.000000  0      -3282780.459       2298898.962       5700559.738
10 0 59270  81780.000000  0      -2910934.952       2183391.673       5941532.721
10 0 59270  81840.000000  0      -2527908.518       2055395.843       6157327.164
10 0 59270  81900.000000  0      -2135419.009       1915358.808       6347026.248
10 0 59270  81960.000000  0      -1735219.993       1763793.746       6509823.244
10 0 59270  82020.000000  0      -1329092.856       1601277.813       6645024.791
10 0 59270  82080.000000  0       -918838.877       1428449.948       6752053.726
10 0 59270  82140.000000  0       -506271.273       1246008.371       6830451.481
10 0 59270  82200.000000  0        -93207.188       1054707.781       6879880.050
10 0 59270  82260.000000  0        318540.314        855356.247       6900123.453
10 0 59270  82320.000000  0        727170.207        648811.832       6891088.706
10 0 59270  82380.000000  0       1130901.376        435978.937       6852806.315
10 0 59270  82440.000000  0       1527980.405        217804.377       6785430.301
10 0 59270  82500.000000  0       1916689.226         -4726.795       6689237.737
10 0 59270  82560.000000  0       2295352.617       -230595.733       6564627.813
10 0 59270  82620.000000  0       2662345.534       -458754.457       6412120.386
10 0 59270  82680.000000  0       3016100.256       -688130.671       6232354.000
10 0 59270  82740.000000  0       3355113.258       -917632.775       6026083.446
10 0 59270  82800.000000  0       3677951.853      -1146155.088       5794176.805
10 0 59270  82860.000000  0       3983260.451      -1372583.212       5537611.934
10 0 59270  82920.000000  0       4269766.479      -1595799.471       5257472.545
10 0 59270  82980.000000  0       4536285.958      -1814688.457       4954943.813
10 0 59270  83040.000000  0       4781728.724      -2028142.622       4631307.541
10 0 59270  83100.000000  0       5005103.262      -2235067.947       4287936.851
10 0 59270  83160.000000  0       5205521.072      -2434389.614       3926290.381
10 0 59270  83220.000000  0       5382200.539      -2625057.643       3547906.040
10 0 59270  83280.000000  0       5534470.239      -2806052.452       3154394.336
10 0 59270  83340.000000  0       5661771.691      -2976390.305       2747431.414
10 0 59270  83400.000000  0       5763661.601      -3135128.651       2328751.765
10 0 59270  83460.000000  0       5839813.536      -3281371.289       1900140.682
10 0 59270  83520.000000  0       5890019.122      -3414273.409       1463426.407
10 0 59270  83580.000000  0       5914188.544      -3533046.364       1020471.916
10 0 59270  83640.000000  0       5912350.358      -3636962.080        573166.655
10 0 59270  83700.000000  0       5884650.869      -3725357.245        123418.236
10 0 59270  83760.000000  0       5831352.940      -3797637.256       -326856.102
10 0 59270  83820.000000  0       5752834.079      -3853279.749       -775738.135
10 0 59270  83880.000000  0       5649583.947      -3891837.686      -1221317.143
10 0 59270  83940.000000  0       5522201.406      -3912942.100      -1661698.349
10 0 59270  84000.000000  0       5371390.979      -3916304.475      -2095011.272
10 0 59270  84060.000000  0       5197958.802      -3901718.712      -2519417.874
10 0 59270  84120.000000  0       5002808.169      -3869062.680      -2933120.558
10 0 59270  84180.000000  0       4786934.570      -3818299.298      -3334369.939
10 0 59270  84240.000000  0       4551420.326      -3749477.203      -3721472.277
10 0 59270  84300.000000  0       4297428.883      -3662731.030      -4092796.605
10 0 59270  84360.000000  0       4026198.777      -3558281.220      -4446781.553
10 0 59270  84420.000000  0       3739037.300      -3436433.392      -4781941.774
10 0 59270  84480.000000  0       3437313.924      -3297577.320      -5096873.947
10 0 59270  84540.000000  0       3122453.539      -3142185.506      -5390262.354
10 0 59270  84600.000000  0       2795929.545      -2970811.426      -5660884.008
10 0 59270  84660.000000  0       2459256.856      -2784087.416      -5907613.380
10 0 59270  84720.000000  0       2113984.812      -2582722.220      -6129426.751
10 0 59270  84780.000000  0       1761689.989      -2367498.139      -6325406.160
10 0 59270  84840.000000  0       1403968.932      -2139267.807      -6494742.850
10 0 59270  84900.000000  0       1042430.907      -1898950.644      -6636740.178
10 0 59270  84960.000000  0        678690.759      -1647529.067      -6750816.041
10 0 59270  85020.000000  0        314361.800      -1386044.463      -6836504.920
10 0 59270  85080.000000  0        -48951.214      -1115592.851      -6893459.424
10 0 59270  85140.000000  0       -409658.917       -837320.333      -6921451.386
10 0 59270  85200.000000  0       -766194.079       -552418.346      -6920372.618
10 0 59270  85260.000000  0      -1117018.265       -262118.642      -6890235.182
10 0 59270  85320.000000  0      -1460628.277         32311.924      -6831171.166
10 0 59270  85380.000000  0      -1795562.388        329576.761      -6743432.063
10 0 59270  85440.000000  0      -2120406.353        628355.094      -6627387.726
10 0 59270  85500.000000  0      -2433799.179        927307.661      -6483524.913
10 0 59270  85560.000000  0      -2734438.665       1225082.545      -6312445.392
10 0 59270  85620.000000  0      -3021086.689       1520321.094      -6114863.661
10 0 59270  85680.000000  0      -3292574.243       1811663.968      -5891604.265
10 0 59270  85740.000000  0      -3547806.214       2097757.276      -5643598.685
10 0 59270  85800.000000  0      -3785765.844       2377258.769      -5371881.762
10 0 59270  85860.000000  0      -4005518.864       2648844.075      -5077587.671
10 0 59270  85920.000000  0      -4206217.251       2911212.902      -4761945.454
10 0 59270  85980.000000  0      -4387102.586       3163095.198      -4426274.174
10 0 59270  86040.000000  0      -4547509.012       3403257.263      -4071977.719
10 0 59270  86100.000000  0      -4686865.818       3630507.796      -3700539.261
10 0 59270  86160.000000  0      -4804699.647       3843703.845      -3313515.305
10 0 59270  86220.000000  0      -4900636.250       4041756.569      -2912529.339
10 0 59270  86280.000000  0      -4974401.750       4223636.805      -2499265.168
10 0 59270  86340.000000  0      -5025823.472       4388380.416      -2075460.036
99
